{"type": "FeatureCollection", "features": [ {"type": "Feature", "properties": {"norad_id": 43648, "name": "BEIDOU-3 M15 (C34)", "group": "gnss", "lat": -51.356880936285314, "lon": -169.7066238973428, "alt_km": 21540.070523990795, "timestamp": "2025-12-23T09:49:07.326106+00:00", "meta": {"OBJECT_NAME": "BEIDOU-3 M15 (C34)", "OBJECT_ID": "2018-078B", "EPOCH": "2025-12-22T11:49:56.675712", "MEAN_MOTION": 1.86232375, "ECCENTRICITY": 0.00040477, "INCLINATION": 54.2489, "RA_OF_ASC_NODE": 306.1811, "ARG_OF_PERICENTER": 19.7114, "MEAN_ANOMALY": 340.3062, "EPHEMERIS_TYPE": 0, "CLASSIFICATION_TYPE": "U", "NORAD_CAT_ID": 43648, "ELEMENT_SET_NO": 999, "REV_AT_EPOCH": 4888, "BSTAR": 0, "MEAN_MOTION_DOT": -5.6e-07, "MEAN_MOTION_DDOT": 0}, "tle": {"line1": "1 43648U 18078B   25356.49301708 -.00000056  00000+0  00000+0 0  9992", "line2": "2 43648  54.2489 306.1811 0004047  19.7114 340.3062  1.86232375 48880"}}, "geometry": {"type": "Point", "coordinates": [-169.7066238973428, -51.356880936285314]}}, {"type": "Feature", "properties": {"norad_id": 43683, "name": "BEIDOU-3 G1 (C59)", "group": "gnss", "lat": -2.6122373872219633, "lon": 19.451876160123316, "alt_km": 35791.555472869084, "timestamp": "2025-12-23T09:49:07.326118+00:00", "meta": {"OBJECT_NAME": "BEIDOU-3 G1 (C59)", "OBJECT_ID": "2018-085A", "EPOCH": "2025-12-22T22:23:23.924256", "MEAN_MOTION": 1.00267527, "ECCENTRICITY": 0.0001504, "INCLINATION": 2.6319, "RA_OF_ASC_NODE": 102.668, "ARG_OF_PERICENTER": 44.867, "MEAN_ANOMALY": 60.0329, "EPHEMERIS_TYPE": 0, "CLASSIFICATION_TYPE": "U", "NORAD_CAT_ID": 43683, "ELEMENT_SET_NO": 999, "REV_AT_EPOCH": 2629, "BSTAR": 0, "MEAN_MOTION_DOT": -2.58e-06, "MEAN_MOTION_DDOT": 0}, "tle": {"line1": "1 43683U 18085A   25356.93291579 -.00000258  00000+0  00000+0 0  9996", "line2": "2 43683   2.6319 102.6680 0001504  44.8670  60.0329  1.00267527 26298"}}, "geometry": {"type": "Point", "coordinates": [19.451876160123316, -2.6122373872219633]}}, {"type": "Feature", "properties": {"norad_id": 43687, "name": "COSMOS 2529 (757)", "group": "gnss", "lat": 23.819198048232753, "lon": 6.247215266766792, "alt_km": 19130.406130146042, "timestamp": "2025-12-23T09:49:07.326132+00:00", "meta": {"OBJECT_NAME": "COSMOS 2529 (757)", "OBJECT_ID": "2018-086A", "EPOCH": "2025-12-21T19:13:53.194368", "MEAN_MOTION": 2.13102139, "ECCENTRICITY": 0.00069117, "INCLINATION": 64.2926, "RA_OF_ASC_NODE": 198.5821, "ARG_OF_PERICENTER": 253.6836, "MEAN_ANOMALY": 106.3102, "EPHEMERIS_TYPE": 0, "CLASSIFICATION_TYPE": "U", "NORAD_CAT_ID": 43687, "ELEMENT_SET_NO": 999, "REV_AT_EPOCH": 5550, "BSTAR": 0, "MEAN_MOTION_DOT": 9.6e-07, "MEAN_MOTION_DDOT": 0}, "tle": {"line1": "1 43687U 18086A   25355.80131012  .00000096  00000+0  00000+0 0  9990", "line2": "2 43687  64.2926 198.5821 0006911 253.6836 106.3102  2.13102139 55503"}}, "geometry": {"type": "Point", "coordinates": [6.247215266766792, 23.819198048232753]}}, {"type": "Feature", "properties": {"norad_id": 43706, "name": "BEIDOU-3 M17 (C36)", "group": "gnss", "lat": 25.59113040831968, "lon": -11.99050832774617, "alt_km": 21540.985379317473, "timestamp": "2025-12-23T09:49:07.326144+00:00", "meta": {"OBJECT_NAME": "BEIDOU-3 M17 (C36)", "OBJECT_ID": "2018-093A", "EPOCH": "2025-12-22T11:03:17.644896", "MEAN_MOTION": 1.86228432, "ECCENTRICITY": 0.00060427, "INCLINATION": 54.173, "RA_OF_ASC_NODE": 188.2918, "ARG_OF_PERICENTER": 307.405, "MEAN_ANOMALY": 284.4943, "EPHEMERIS_TYPE": 0, "CLASSIFICATION_TYPE": "U", "NORAD_CAT_ID": 43706, "ELEMENT_SET_NO": 999, "REV_AT_EPOCH": 4824, "BSTAR": 0, "MEAN_MOTION_DOT": 9.4e-07, "MEAN_MOTION_DDOT": 0}, "tle": {"line1": "1 43706U 18093A   25356.46062089  .00000094  00000+0  00000+0 0  9998", "line2": "2 43706  54.1730 188.2918 0006042 307.4050 284.4943  1.86228432 48248"}}, "geometry": {"type": "Point", "coordinates": [-11.99050832774617, 25.59113040831968]}}, {"type": "Feature", "properties": {"norad_id": 43707, "name": "BEIDOU-3 M18 (C37)", "group": "gnss", "lat": -44.898297730928014, "lon": 54.32871497544362, "alt_km": 21540.468769826646, "timestamp": "2025-12-23T09:49:07.326157+00:00", "meta": {"OBJECT_NAME": "BEIDOU-3 M18 (C37)", "OBJECT_ID": "2018-093B", "EPOCH": "2025-12-20T21:39:28.587744", "MEAN_MOTION": 1.86226757, "ECCENTRICITY": 0.00062168, "INCLINATION": 54.1741, "RA_OF_ASC_NODE": 188.3365, "ARG_OF_PERICENTER": 353.7926, "MEAN_ANOMALY": 6.2524, "EPHEMERIS_TYPE": 0, "CLASSIFICATION_TYPE": "U", "NORAD_CAT_ID": 43707, "ELEMENT_SET_NO": 999, "REV_AT_EPOCH": 4821, "BSTAR": 0, "MEAN_MOTION_DOT": 9.5e-07, "MEAN_MOTION_DDOT": 0}, "tle": {"line1": "1 43707U 18093B   25354.90241421  .00000095  00000+0  00000+0 0  9996", "line2": "2 43707  54.1741 188.3365 0006216 353.7926   6.2524  1.86226757 48217"}}, "geometry": {"type": "Point", "coordinates": [54.32871497544362, -44.898297730928014]}}, {"type": "Feature", "properties": {"norad_id": 43873, "name": "GPS BIII-1  (PRN 04)", "group": "gnss", "lat": -51.968025816807874, "lon": 38.01510089790372, "alt_km": 20191.774592405225, "timestamp": "2025-12-23T09:49:07.326169+00:00", "meta": {"OBJECT_NAME": "GPS BIII-1  (PRN 04)", "OBJECT_ID": "2018-109A", "EPOCH": "2025-12-21T18:06:33.031872", "MEAN_MOTION": 2.00553985, "ECCENTRICITY": 0.00375944, "INCLINATION": 55.5715, "RA_OF_ASC_NODE": 99.1915, "ARG_OF_PERICENTER": 195.3805, "MEAN_ANOMALY": 336.8667, "EPHEMERIS_TYPE": 0, "CLASSIFICATION_TYPE": "U", "NORAD_CAT_ID": 43873, "ELEMENT_SET_NO": 999, "REV_AT_EPOCH": 5151, "BSTAR": 0, "MEAN_MOTION_DOT": -1e-08, "MEAN_MOTION_DDOT": 0}, "tle": {"line1": "1 43873U 18109A   25355.75454898 -.00000001  00000+0  00000+0 0  9994", "line2": "2 43873  55.5715  99.1915 0037594 195.3805 336.8667  2.00553985 51516"}}, "geometry": {"type": "Point", "coordinates": [38.01510089790372, -51.968025816807874]}}, {"type": "Feature", "properties": {"norad_id": 44231, "name": "BEIDOU-2 G8 (C01)", "group": "gnss", "lat": -1.3001028226232787, "lon": 24.05356644788161, "alt_km": 35763.51160217267, "timestamp": "2025-12-23T09:49:07.326180+00:00", "meta": {"OBJECT_NAME": "BEIDOU-2 G8 (C01)", "OBJECT_ID": "2019-027A", "EPOCH": "2025-12-19T12:14:23.449632", "MEAN_MOTION": 1.00276563, "ECCENTRICITY": 0.0008196, "INCLINATION": 1.6785, "RA_OF_ASC_NODE": 74.7229, "ARG_OF_PERICENTER": 258.5641, "MEAN_ANOMALY": 83.1013, "EPHEMERIS_TYPE": 0, "CLASSIFICATION_TYPE": "U", "NORAD_CAT_ID": 44231, "ELEMENT_SET_NO": 999, "REV_AT_EPOCH": 2427, "BSTAR": 0, "MEAN_MOTION_DOT": -2.24e-06, "MEAN_MOTION_DDOT": 0}, "tle": {"line1": "1 44231U 19027A   25353.50999363 -.00000224  00000+0  00000+0 0  9992", "line2": "2 44231   1.6785  74.7229 0008196 258.5641  83.1013  1.00276563 24270"}}, "geometry": {"type": "Point", "coordinates": [24.05356644788161, -1.3001028226232787]}}, {"type": "Feature", "properties": {"norad_id": 44299, "name": "COSMOS 2534 (758)", "group": "gnss", "lat": -59.0962703959332, "lon": 145.15780045635842, "alt_km": 19113.975055823183, "timestamp": "2025-12-23T09:49:07.326192+00:00", "meta": {"OBJECT_NAME": "COSMOS 2534 (758)", "OBJECT_ID": "2019-030A", "EPOCH": "2025-12-21T10:55:51.060576", "MEAN_MOTION": 2.13102432, "ECCENTRICITY": 0.00087289, "INCLINATION": 64.366, "RA_OF_ASC_NODE": 198.5992, "ARG_OF_PERICENTER": 284.1192, "MEAN_ANOMALY": 304.9695, "EPHEMERIS_TYPE": 0, "CLASSIFICATION_TYPE": "U", "NORAD_CAT_ID": 44299, "ELEMENT_SET_NO": 999, "REV_AT_EPOCH": 5113, "BSTAR": 0, "MEAN_MOTION_DOT": 9.7e-07, "MEAN_MOTION_DDOT": 0}, "tle": {"line1": "1 44299U 19030A   25355.45545209  .00000097  00000+0  00000+0 0  9999", "line2": "2 44299  64.3660 198.5992 0008728 284.1192 304.9695  2.13102432 51134"}}, "geometry": {"type": "Point", "coordinates": [145.15780045635842, -59.0962703959332]}}, {"type": "Feature", "properties": {"norad_id": 44337, "name": "BEIDOU-3 IGSO-2 (C39)", "group": "gnss", "lat": -15.090061806155376, "lon": -8.801719114396912, "alt_km": 35631.20622970834, "timestamp": "2025-12-23T09:49:07.326203+00:00", "meta": {"OBJECT_NAME": "BEIDOU-3 IGSO-2 (C39)", "OBJECT_ID": "2019-035A", "EPOCH": "2025-12-22T20:34:56.810208", "MEAN_MOTION": 1.00268278, "ECCENTRICITY": 0.00377374, "INCLINATION": 55.2288, "RA_OF_ASC_NODE": 160.4125, "ARG_OF_PERICENTER": 202.3518, "MEAN_ANOMALY": 156.9915, "EPHEMERIS_TYPE": 0, "CLASSIFICATION_TYPE": "U", "NORAD_CAT_ID": 44337, "ELEMENT_SET_NO": 999, "REV_AT_EPOCH": 2389, "BSTAR": 0, "MEAN_MOTION_DOT": -7.6e-07, "MEAN_MOTION_DDOT": 0}, "tle": {"line1": "1 44337U 19035A   25356.85760197 -.00000076  00000+0  00000+0 0  9995", "line2": "2 44337  55.2288 160.4125 0037737 202.3518 156.9915  1.00268278 23892"}}, "geometry": {"type": "Point", "coordinates": [-8.801719114396912, -15.090061806155376]}}, {"type": "Feature", "properties": {"norad_id": 44506, "name": "GPS BIII-2  (PRN 18)", "group": "gnss", "lat": -3.4466827627182863, "lon": 160.46941496911904, "alt_km": 20034.46737202218, "timestamp": "2025-12-23T09:49:07.326215+00:00", "meta": {"OBJECT_NAME": "GPS BIII-2  (PRN 18)", "OBJECT_ID": "2019-056A", "EPOCH": "2025-12-22T09:30:36.985824", "MEAN_MOTION": 2.00566609, "ECCENTRICITY": 0.00577373, "INCLINATION": 55.718, "RA_OF_ASC_NODE": 338.1699, "ARG_OF_PERICENTER": 198.5796, "MEAN_ANOMALY": 334.3723, "EPHEMERIS_TYPE": 0, "CLASSIFICATION_TYPE": "U", "NORAD_CAT_ID": 44506, "ELEMENT_SET_NO": 999, "REV_AT_EPOCH": 4652, "BSTAR": 0, "MEAN_MOTION_DOT": -6.7e-07, "MEAN_MOTION_DDOT": 0}, "tle": {"line1": "1 44506U 19056A   25356.39626141 -.00000067  00000+0  00000+0 0  9995", "line2": "2 44506  55.7180 338.1699 0057737 198.5796 334.3723  2.00566609 46526"}}, "geometry": {"type": "Point", "coordinates": [160.46941496911904, -3.4466827627182863]}}]}